[{"OBJECT_NAME":"STARLINK-30794","OBJECT_ID":"2023-170N","EPOCH":"2025-08-04T12:57:52.445376","MEAN_MOTION":15.02533434,"ECCENTRICITY":0.0001574,"INCLINATION":43.0041,"RA_OF_ASC_NODE":295.9115,"ARG_OF_PERICENTER":270.119,"MEAN_ANOMALY":89.9472,"EPHEMERIS_TYPE":0,"CLASSIFICATION_TYPE":"U","NORAD_CAT_ID":58218,"ELEMENT_SET_NO":999,"REV_AT_EPOCH":9761,"BSTAR":3.029e-5,"MEAN_MOTION_DOT":2.05e-6,"MEAN_MOTION_DDOT":0},{"OBJECT_NAME":"STARLINK-30835","OBJECT_ID":"2023-170P","EPOCH":"2025-08-04T13:55:15.025728","MEAN_MOTION":15.02514231,"ECCENTRICITY":0.0001513,"INCLINATION":43.0026,"RA_OF_ASC_NODE":295.3707,"ARG_OF_PERICENTER":277.6725,"MEAN_ANOMALY":82.3946,"EPHEMERIS_TYPE":0,"CLASSIFICATION_TYPE":"U","NORAD_CAT_ID":58219,"ELEMENT_SET_NO":999,"REV_AT_EPOCH":9762,"BSTAR":6.69e-5,"MEAN_MOTION_DOT":7.0e-6,"MEAN_MOTION_DDOT":0},{"OBJECT_NAME":"STARLINK-30792","OBJECT_ID":"2023-170Q","EPOCH":"2025-08-04T13:50:20.233248","MEAN_MOTION":15.02622732,"ECCENTRICITY":0.0002283,"INCLINATION":43.0053,"RA_OF_ASC_NODE":295.3457,"ARG_OF_PERICENTER":278.5703,"MEAN_ANOMALY":81.4881,"EPHEMERIS_TYPE":0,"CLASSIFICATION_TYPE":"U","NORAD_CAT_ID":58220,"ELEMENT_SET_NO":999,"REV_AT_EPOCH":9762,"BSTAR":0.00097253,"MEAN_MOTION_DOT":0.00012988,"MEAN_MOTION_DDOT":0},{"OBJECT_NAME":"STARLINK-30836","OBJECT_ID":"2023-170R","EPOCH":"2025-08-04T13:45:39.041856","MEAN_MOTION":15.02537614,"ECCENTRICITY":0.000126,"INCLINATION":43.0028,"RA_OF_ASC_NODE":295.3192,"ARG_OF_PERICENTER":274.9403,"MEAN_ANOMALY":85.1296,"EPHEMERIS_TYPE":0,"CLASSIFICATION_TYPE":"U","NORAD_CAT_ID":58221,"ELEMENT_SET_NO":999,"REV_AT_EPOCH":9762,"BSTAR":6.2089e-5,"MEAN_MOTION_DOT":6.35e-6,"MEAN_MOTION_DDOT":0},{"OBJECT_NAME":"STARLINK-30855","OBJECT_ID":"2023-170S","EPOCH":"2025-08-04T13:26:38.924736","MEAN_MOTION":15.02531969,"ECCENTRICITY":0.0001501,"INCLINATION":43.003,"RA_OF_ASC_NODE":296.0625,"ARG_OF_PERICENTER":268.3892,"MEAN_ANOMALY":91.6778,"EPHEMERIS_TYPE":0,"CLASSIFICATION_TYPE":"U","NORAD_CAT_ID":58222,"ELEMENT_SET_NO":999,"REV_AT_EPOCH":9761,"BSTAR":-3.2092e-5,"MEAN_MOTION_DOT":-6.37e-6,"MEAN_MOTION_DDOT":0},{"OBJECT_NAME":"STARLINK-30840","OBJECT_ID":"2023-170T","EPOCH":"2025-08-04T05:23:12.340896","MEAN_MOTION":15.02543148,"ECCENTRICITY":0.000116,"INCLINATION":43.0029,"RA_OF_ASC_NODE":297.845,"ARG_OF_PERICENTER":297.6708,"MEAN_ANOMALY":62.4017,"EPHEMERIS_TYPE":0,"CLASSIFICATION_TYPE":"U","NORAD_CAT_ID":58223,"ELEMENT_SET_NO":999,"REV_AT_EPOCH":9756,"BSTAR":-3.2644e-6,"MEAN_MOTION_DOT":-2.48e-6,"MEAN_MOTION_DDOT":0},{"OBJECT_NAME":"STARLINK-30875","OBJECT_ID":"2023-170U","EPOCH":"2025-08-04T04:35:15.458496","MEAN_MOTION":15.02536553,"ECCENTRICITY":0.0001527,"INCLINATION":43.0038,"RA_OF_ASC_NODE":297.5961,"ARG_OF_PERICENTER":266.2546,"MEAN_ANOMALY":93.8122,"EPHEMERIS_TYPE":0,"CLASSIFICATION_TYPE":"U","NORAD_CAT_ID":58224,"ELEMENT_SET_NO":999,"REV_AT_EPOCH":9756,"BSTAR":4.3838e-5,"MEAN_MOTION_DOT":3.89e-6,"MEAN_MOTION_DDOT":0},{"OBJECT_NAME":"STARLINK-30872","OBJECT_ID":"2023-170V","EPOCH":"2025-08-04T05:59:16.888992","MEAN_MOTION":15.27574588,"ECCENTRICITY":0.000145,"INCLINATION":43.0006,"RA_OF_ASC_NODE":200.2898,"ARG_OF_PERICENTER":269.699,"MEAN_ANOMALY":90.3696,"EPHEMERIS_TYPE":0,"CLASSIFICATION_TYPE":"U","NORAD_CAT_ID":58225,"ELEMENT_SET_NO":999,"REV_AT_EPOCH":9871,"BSTAR":1.212e-5,"MEAN_MOTION_DOT":7.1e-7,"MEAN_MOTION_DDOT":0},{"OBJECT_NAME":"STARLINK-30865","OBJECT_ID":"2023-170W","EPOCH":"2025-08-04T04:52:10.714656","MEAN_MOTION":15.02537711,"ECCENTRICITY":0.0001194,"INCLINATION":43.0024,"RA_OF_ASC_NODE":286.6483,"ARG_OF_PERICENTER":266.0786,"MEAN_ANOMALY":93.992,"EPHEMERIS_TYPE":0,"CLASSIFICATION_TYPE":"U","NORAD_CAT_ID":58226,"ELEMENT_SET_NO":999,"REV_AT_EPOCH":9769,"BSTAR":4.6291e-5,"MEAN_MOTION_DOT":4.22e-6,"MEAN_MOTION_DDOT":0},{"OBJECT_NAME":"STARLINK-30874","OBJECT_ID":"2023-170X","EPOCH":"2025-08-04T13:41:01.023072","MEAN_MOTION":15.02539485,"ECCENTRICITY":0.0001643,"INCLINATION":43.0025,"RA_OF_ASC_NODE":296.1389,"ARG_OF_PERICENTER":266.5937,"MEAN_ANOMALY":93.4717,"EPHEMERIS_TYPE":0,"CLASSIFICATION_TYPE":"U","NORAD_CAT_ID":58227,"ELEMENT_SET_NO":999,"REV_AT_EPOCH":9761,"BSTAR":7.6897e-5,"MEAN_MOTION_DOT":8.35e-6,"MEAN_MOTION_DDOT":0},{"OBJECT_NAME":"STARLINK-30871","OBJECT_ID":"2023-170Y","EPOCH":"2025-08-04T13:36:14.058432","MEAN_MOTION":15.02536122,"ECCENTRICITY":0.0001579,"INCLINATION":43.0057,"RA_OF_ASC_NODE":296.1142,"ARG_OF_PERICENTER":270.0022,"MEAN_ANOMALY":90.064,"EPHEMERIS_TYPE":0,"CLASSIFICATION_TYPE":"U","NORAD_CAT_ID":58228,"ELEMENT_SET_NO":999,"REV_AT_EPOCH":9761,"BSTAR":1.5695e-6,"MEAN_MOTION_DOT":-1.83e-6,"MEAN_MOTION_DDOT":0},{"OBJECT_NAME":"STARLINK-30861","OBJECT_ID":"2023-171A","EPOCH":"2025-08-04T11:57:39.454848","MEAN_MOTION":15.02537628,"ECCENTRICITY":0.0001062,"INCLINATION":43.0038,"RA_OF_ASC_NODE":26.2143,"ARG_OF_PERICENTER":260.6436,"MEAN_ANOMALY":99.4286,"EPHEMERIS_TYPE":0,"CLASSIFICATION_TYPE":"U","NORAD_CAT_ID":58230,"ELEMENT_SET_NO":999,"REV_AT_EPOCH":9705,"BSTAR":1.3449e-5,"MEAN_MOTION_DOT":-2.2e-7,"MEAN_MOTION_DDOT":0},{"OBJECT_NAME":"STARLINK-30867","OBJECT_ID":"2023-171B","EPOCH":"2025-08-04T12:02:27.334464","MEAN_MOTION":15.02533228,"ECCENTRICITY":0.0001359,"INCLINATION":43.0049,"RA_OF_ASC_NODE":26.238,"ARG_OF_PERICENTER":266.3098,"MEAN_ANOMALY":93.7589,"EPHEMERIS_TYPE":0,"CLASSIFICATION_TYPE":"U","NORAD_CAT_ID":58231,"ELEMENT_SET_NO":999,"REV_AT_EPOCH":9705,"BSTAR":4.1024e-5,"MEAN_MOTION_DOT":3.5e-6,"MEAN_MOTION_DDOT":0},{"OBJECT_NAME":"STARLINK-30880","OBJECT_ID":"2023-171C","EPOCH":"2025-08-04T10:31:31.239264","MEAN_MOTION":15.02535458,"ECCENTRICITY":0.0001513,"INCLINATION":43.0022,"RA_OF_ASC_NODE":26.6199,"ARG_OF_PERICENTER":257.6391,"MEAN_ANOMALY":102.4282,"EPHEMERIS_TYPE":0,"CLASSIFICATION_TYPE":"U","NORAD_CAT_ID":58232,"ELEMENT_SET_NO":999,"REV_AT_EPOCH":9704,"BSTAR":2.1727e-5,"MEAN_MOTION_DOT":9.0e-7,"MEAN_MOTION_DDOT":0},{"OBJECT_NAME":"STARLINK-30777","OBJECT_ID":"2023-171D","EPOCH":"2025-08-04T12:16:50.836800","MEAN_MOTION":15.02526045,"ECCENTRICITY":0.0001348,"INCLINATION":43.0051,"RA_OF_ASC_NODE":26.3097,"ARG_OF_PERICENTER":273.3088,"MEAN_ANOMALY":86.76,"EPHEMERIS_TYPE":0,"CLASSIFICATION_TYPE":"U","NORAD_CAT_ID":58233,"ELEMENT_SET_NO":999,"REV_AT_EPOCH":9705,"BSTAR":-2.6094e-5,"MEAN_MOTION_DOT":-5.56e-6,"MEAN_MOTION_DDOT":0},{"OBJECT_NAME":"STARLINK-30860","OBJECT_ID":"2023-171E","EPOCH":"2025-08-04T10:36:18.819936","MEAN_MOTION":15.02536495,"ECCENTRICITY":0.0001259,"INCLINATION":43.0044,"RA_OF_ASC_NODE":26.6473,"ARG_OF_PERICENTER":268.5332,"MEAN_ANOMALY":91.5366,"EPHEMERIS_TYPE":0,"CLASSIFICATION_TYPE":"U","NORAD_CAT_ID":58234,"ELEMENT_SET_NO":999,"REV_AT_EPOCH":9704,"BSTAR":2.0028e-5,"MEAN_MOTION_DOT":6.7e-7,"MEAN_MOTION_DDOT":0},{"OBJECT_NAME":"STARLINK-30879","OBJECT_ID":"2023-171F","EPOCH":"2025-08-04T14:20:54.170880","MEAN_MOTION":15.49187356,"ECCENTRICITY":0.0018232,"INCLINATION":42.9962,"RA_OF_ASC_NODE":288.579,"ARG_OF_PERICENTER":31.3335,"MEAN_ANOMALY":328.8608,"EPHEMERIS_TYPE":0,"CLASSIFICATION_TYPE":"U","NORAD_CAT_ID":58235,"ELEMENT_SET_NO":999,"REV_AT_EPOCH":9820,"BSTAR":0.00026276,"MEAN_MOTION_DOT":0.00014451,"MEAN_MOTION_DDOT":0},{"OBJECT_NAME":"STARLINK-30853","OBJECT_ID":"2023-171G","EPOCH":"2025-08-04T10:45:54.203328","MEAN_MOTION":15.02534602,"ECCENTRICITY":0.0001294,"INCLINATION":43.0045,"RA_OF_ASC_NODE":26.6881,"ARG_OF_PERICENTER":266.2687,"MEAN_ANOMALY":93.8008,"EPHEMERIS_TYPE":0,"CLASSIFICATION_TYPE":"U","NORAD_CAT_ID":58236,"ELEMENT_SET_NO":999,"REV_AT_EPOCH":9704,"BSTAR":4.3242e-5,"MEAN_MOTION_DOT":3.8e-6,"MEAN_MOTION_DDOT":0},{"OBJECT_NAME":"STARLINK-30866","OBJECT_ID":"2023-171H","EPOCH":"2025-08-03T19:41:11.963904","MEAN_MOTION":15.02535284,"ECCENTRICITY":9.01e-5,"INCLINATION":43.0049,"RA_OF_ASC_NODE":29.7164,"ARG_OF_PERICENTER":264.4992,"MEAN_ANOMALY":95.5748,"EPHEMERIS_TYPE":0,"CLASSIFICATION_TYPE":"U","NORAD_CAT_ID":58237,"ELEMENT_SET_NO":999,"REV_AT_EPOCH":9695,"BSTAR":2.2909e-5,"MEAN_MOTION_DOT":1.06e-6,"MEAN_MOTION_DDOT":0},{"OBJECT_NAME":"STARLINK-30817","OBJECT_ID":"2023-171J","EPOCH":"2025-08-04T12:26:25.463328","MEAN_MOTION":15.02515745,"ECCENTRICITY":2.1e-5,"INCLINATION":42.997,"RA_OF_ASC_NODE":26.3421,"ARG_OF_PERICENTER":124.1047,"MEAN_ANOMALY":235.9815,"EPHEMERIS_TYPE":0,"CLASSIFICATION_TYPE":"U","NORAD_CAT_ID":58238,"ELEMENT_SET_NO":999,"REV_AT_EPOCH":9705,"BSTAR":0.00022911,"MEAN_MOTION_DOT":2.891e-5,"MEAN_MOTION_DDOT":0},{"OBJECT_NAME":"STARLINK-30847","OBJECT_ID":"2023-171K","EPOCH":"2025-08-04T12:31:13.257408","MEAN_MOTION":15.02536161,"ECCENTRICITY":0.0001289,"INCLINATION":43.0046,"RA_OF_ASC_NODE":26.3755,"ARG_OF_PERICENTER":265.1226,"MEAN_ANOMALY":94.9469,"EPHEMERIS_TYPE":0,"CLASSIFICATION_TYPE":"U","NORAD_CAT_ID":58239,"ELEMENT_SET_NO":999,"REV_AT_EPOCH":9705,"BSTAR":-3.7339e-7,"MEAN_MOTION_DOT":-2.09e-6,"MEAN_MOTION_DDOT":0},{"OBJECT_NAME":"STARLINK-30848","OBJECT_ID":"2023-171L","EPOCH":"2025-08-04T12:52:20.530272","MEAN_MOTION":15.02537096,"ECCENTRICITY":0.0001153,"INCLINATION":43.0044,"RA_OF_ASC_NODE":27.3203,"ARG_OF_PERICENTER":267.6929,"MEAN_ANOMALY":92.3781,"EPHEMERIS_TYPE":0,"CLASSIFICATION_TYPE":"U","NORAD_CAT_ID":58240,"ELEMENT_SET_NO":999,"REV_AT_EPOCH":9704,"BSTAR":1.382e-5,"MEAN_MOTION_DOT":-1.7e-7,"MEAN_MOTION_DDOT":0},{"OBJECT_NAME":"STARLINK-30843","OBJECT_ID":"2023-171M","EPOCH":"2025-08-04T12:36:00.685152","MEAN_MOTION":15.02540561,"ECCENTRICITY":0.0001405,"INCLINATION":43.005,"RA_OF_ASC_NODE":26.3881,"ARG_OF_PERICENTER":273.2722,"MEAN_ANOMALY":86.796,"EPHEMERIS_TYPE":0,"CLASSIFICATION_TYPE":"U","NORAD_CAT_ID":58241,"ELEMENT_SET_NO":999,"REV_AT_EPOCH":9707,"BSTAR":-0.00028886,"MEAN_MOTION_DOT":-4.104e-5,"MEAN_MOTION_DDOT":0},{"OBJECT_NAME":"STARLINK-30877","OBJECT_ID":"2023-171N","EPOCH":"2025-08-03T19:45:59.653440","MEAN_MOTION":15.02530874,"ECCENTRICITY":0.0001306,"INCLINATION":43.0045,"RA_OF_ASC_NODE":29.7379,"ARG_OF_PERICENTER":266.2005,"MEAN_ANOMALY":93.8688,"EPHEMERIS_TYPE":0,"CLASSIFICATION_TYPE":"U","NORAD_CAT_ID":58242,"ELEMENT_SET_NO":999,"REV_AT_EPOCH":9695,"BSTAR":-7.9836e-6,"MEAN_MOTION_DOT":-3.11e-6,"MEAN_MOTION_DDOT":0}]
